CCSDS_OMM_VERS = 2.0
CREATION_DATE  = 
ORIGINATOR     = 

OBJECT_NAME    = SL-14 R/B
OBJECT_ID      = 1986-046B
CENTER_NAME    = EARTH
REF_FRAME      = TEME
TIME_SYSTEM    = UTC
MEAN_ELEMENT_THEORY = SGP/SGP4

EPOCH          = 2026-01-05T13:25:56.403840
MEAN_MOTION    = 14.85518158
ECCENTRICITY   = .00245056
INCLINATION    = 82.4833
RA_OF_ASC_NODE = 139.8195
ARG_OF_PERICENTER = 77.4886
MEAN_ANOMALY   = 282.9069

EPHEMERIS_TYPE = 0
CLASSIFICATION_TYPE = U
NORAD_CAT_ID   = 16792
ELEMENT_SET_NO = 999
REV_AT_EPOCH   = 11703
BSTAR          = .94376228E-4
MEAN_MOTION_DOT = .844E-5
MEAN_MOTION_DDOT = 0

CCSDS_OMM_VERS = 2.0
CREATION_DATE  = 
ORIGINATOR     = 

OBJECT_NAME    = SL-14 R/B
OBJECT_ID      = 1986-055B
CENTER_NAME    = EARTH
REF_FRAME      = TEME
TIME_SYSTEM    = UTC
MEAN_ELEMENT_THEORY = SGP/SGP4

EPOCH          = 2026-01-05T11:36:57.117888
MEAN_MOTION    = 14.85560769
ECCENTRICITY   = .00189442
INCLINATION    = 82.5198
RA_OF_ASC_NODE = 186.0605
ARG_OF_PERICENTER = 177.0448
MEAN_ANOMALY   = 213.0398

EPHEMERIS_TYPE = 0
CLASSIFICATION_TYPE = U
NORAD_CAT_ID   = 16882
ELEMENT_SET_NO = 999
REV_AT_EPOCH   = 10998
BSTAR          = .85891152E-4
MEAN_MOTION_DOT = .769E-5
MEAN_MOTION_DDOT = 0

CCSDS_OMM_VERS = 2.0
CREATION_DATE  = 
ORIGINATOR     = 

OBJECT_NAME    = AJISAI (EGS)
OBJECT_ID      = 1986-061A
CENTER_NAME    = EARTH
REF_FRAME      = TEME
TIME_SYSTEM    = UTC
MEAN_ELEMENT_THEORY = SGP/SGP4

EPOCH          = 2026-01-05T14:12:06.348096
MEAN_MOTION    = 12.44514668
ECCENTRICITY   = .00113087
INCLINATION    = 50.0101
RA_OF_ASC_NODE = 287.3751
ARG_OF_PERICENTER = 125.7911
MEAN_ANOMALY   = 292.3977

EPHEMERIS_TYPE = 0
CLASSIFICATION_TYPE = U
NORAD_CAT_ID   = 16908
ELEMENT_SET_NO = 999
REV_AT_EPOCH   = 46014
BSTAR          = .20008249E-3
MEAN_MOTION_DOT = -.69E-6
MEAN_MOTION_DDOT = 0

CCSDS_OMM_VERS = 2.0
CREATION_DATE  = 
ORIGINATOR     = 

OBJECT_NAME    = COSMOS 1812
OBJECT_ID      = 1987-003A
CENTER_NAME    = EARTH
REF_FRAME      = TEME
TIME_SYSTEM    = UTC
MEAN_ELEMENT_THEORY = SGP/SGP4

EPOCH          = 2026-01-05T10:40:26.896800
MEAN_MOTION    = 15.81520934
ECCENTRICITY   = .00044807
INCLINATION    = 82.4861
RA_OF_ASC_NODE = 266.2552
ARG_OF_PERICENTER = 59.2251
MEAN_ANOMALY   = 300.9457

EPHEMERIS_TYPE = 0
CLASSIFICATION_TYPE = U
NORAD_CAT_ID   = 17295
ELEMENT_SET_NO = 999
REV_AT_EPOCH   = 13439
BSTAR          = .78508749E-3
MEAN_MOTION_DOT = .15819E-2
MEAN_MOTION_DDOT = 0

CCSDS_OMM_VERS = 2.0
CREATION_DATE  = 
ORIGINATOR     = 

OBJECT_NAME    = SL-14 R/B
OBJECT_ID      = 1987-024B
CENTER_NAME    = EARTH
REF_FRAME      = TEME
TIME_SYSTEM    = UTC
MEAN_ELEMENT_THEORY = SGP/SGP4

EPOCH          = 2026-01-05T11:33:07.802784
MEAN_MOTION    = 14.86057191
ECCENTRICITY   = .00196148
INCLINATION    = 82.5290
RA_OF_ASC_NODE = 152.1518
ARG_OF_PERICENTER = 108.7671
MEAN_ANOMALY   = 251.5676

EPHEMERIS_TYPE = 0
CLASSIFICATION_TYPE = U
NORAD_CAT_ID   = 17567
ELEMENT_SET_NO = 999
REV_AT_EPOCH   = 7874
BSTAR          = .9415018E-4
MEAN_MOTION_DOT = .851E-5
MEAN_MOTION_DDOT = 0

CCSDS_OMM_VERS = 2.0
CREATION_DATE  = 
ORIGINATOR     = 

OBJECT_NAME    = COSMOS 1833
OBJECT_ID      = 1987-027A
CENTER_NAME    = EARTH
REF_FRAME      = TEME
TIME_SYSTEM    = UTC
MEAN_ELEMENT_THEORY = SGP/SGP4

EPOCH          = 2026-01-05T15:28:54.578496
MEAN_MOTION    = 14.13036888
ECCENTRICITY   = .00236724
INCLINATION    = 70.9185
RA_OF_ASC_NODE = 98.5271
ARG_OF_PERICENTER = 298.5192
MEAN_ANOMALY   = 61.3546

EPHEMERIS_TYPE = 0
CLASSIFICATION_TYPE = U
NORAD_CAT_ID   = 17589
ELEMENT_SET_NO = 999
REV_AT_EPOCH   = 141
BSTAR          = .21912703E-3
MEAN_MOTION_DOT = .362E-5
MEAN_MOTION_DDOT = 0

CCSDS_OMM_VERS = 2.0
CREATION_DATE  = 
ORIGINATOR     = 

OBJECT_NAME    = SL-16 R/B
OBJECT_ID      = 1987-027B
CENTER_NAME    = EARTH
REF_FRAME      = TEME
TIME_SYSTEM    = UTC
MEAN_ELEMENT_THEORY = SGP/SGP4

EPOCH          = 2026-01-05T12:27:23.527584
MEAN_MOTION    = 14.17156874
ECCENTRICITY   = .00068628
INCLINATION    = 71.0031
RA_OF_ASC_NODE = 49.6110
ARG_OF_PERICENTER = 234.7736
MEAN_ANOMALY   = 125.2746

EPHEMERIS_TYPE = 0
CLASSIFICATION_TYPE = U
NORAD_CAT_ID   = 17590
ELEMENT_SET_NO = 999
REV_AT_EPOCH   = 639
BSTAR          = .11865796E-3
MEAN_MOTION_DOT = .191E-5
MEAN_MOTION_DDOT = 0

CCSDS_OMM_VERS = 2.0
CREATION_DATE  = 
ORIGINATOR     = 

OBJECT_NAME    = SL-14 R/B
OBJECT_ID      = 1987-038B
CENTER_NAME    = EARTH
REF_FRAME      = TEME
TIME_SYSTEM    = UTC
MEAN_ELEMENT_THEORY = SGP/SGP4

EPOCH          = 2026-01-05T10:39:00.635040
MEAN_MOTION    = 14.85290775
ECCENTRICITY   = .00197711
INCLINATION    = 82.5015
RA_OF_ASC_NODE = 356.3716
ARG_OF_PERICENTER = 18.2933
MEAN_ANOMALY   = 341.8990

EPHEMERIS_TYPE = 0
CLASSIFICATION_TYPE = U
NORAD_CAT_ID   = 17912
ELEMENT_SET_NO = 999
REV_AT_EPOCH   = 6984
BSTAR          = .89575651E-4
MEAN_MOTION_DOT = .796E-5
MEAN_MOTION_DDOT = 0

CCSDS_OMM_VERS = 2.0
CREATION_DATE  = 
ORIGINATOR     = 

OBJECT_NAME    = COSMOS 1844
OBJECT_ID      = 1987-041A
CENTER_NAME    = EARTH
REF_FRAME      = TEME
TIME_SYSTEM    = UTC
MEAN_ELEMENT_THEORY = SGP/SGP4

EPOCH          = 2026-01-05T14:31:40.742688
MEAN_MOTION    = 14.14539089
ECCENTRICITY   = .0028698
INCLINATION    = 70.8989
RA_OF_ASC_NODE = 167.2343
ARG_OF_PERICENTER = 119.4262
MEAN_ANOMALY   = 240.9729

EPHEMERIS_TYPE = 0
CLASSIFICATION_TYPE = U
NORAD_CAT_ID   = 17973
ELEMENT_SET_NO = 999
REV_AT_EPOCH   = 99466
BSTAR          = .62692854E-4
MEAN_MOTION_DOT = .73E-6
MEAN_MOTION_DDOT = 0

CCSDS_OMM_VERS = 2.0
CREATION_DATE  = 
ORIGINATOR     = 

OBJECT_NAME    = SL-14 R/B
OBJECT_ID      = 1987-055B
CENTER_NAME    = EARTH
REF_FRAME      = TEME
TIME_SYSTEM    = UTC
MEAN_ELEMENT_THEORY = SGP/SGP4

EPOCH          = 2026-01-05T13:35:21.913440
MEAN_MOTION    = 14.85550420
ECCENTRICITY   = .00197028
INCLINATION    = 82.4981
RA_OF_ASC_NODE = 48.5307
ARG_OF_PERICENTER = 219.0583
MEAN_ANOMALY   = 140.9212

EPHEMERIS_TYPE = 0
CLASSIFICATION_TYPE = U
NORAD_CAT_ID   = 18153
ELEMENT_SET_NO = 999
REV_AT_EPOCH   = 6056
BSTAR          = .76045869E-4
MEAN_MOTION_DOT = .683E-5
MEAN_MOTION_DDOT = 0

CCSDS_OMM_VERS = 2.0
CREATION_DATE  = 
ORIGINATOR     = 

OBJECT_NAME    = COSMOS 1867
OBJECT_ID      = 1987-060A
CENTER_NAME    = EARTH
REF_FRAME      = TEME
TIME_SYSTEM    = UTC
MEAN_ELEMENT_THEORY = SGP/SGP4

EPOCH          = 2026-01-05T15:15:05.938560
MEAN_MOTION    = 14.31491332
ECCENTRICITY   = .00138193
INCLINATION    = 65.0110
RA_OF_ASC_NODE = 123.2855
ARG_OF_PERICENTER = 273.5564
MEAN_ANOMALY   = 86.3940

EPHEMERIS_TYPE = 0
CLASSIFICATION_TYPE = U
NORAD_CAT_ID   = 18187
ELEMENT_SET_NO = 999
REV_AT_EPOCH   = 1091
BSTAR          = .43610618E-4
MEAN_MOTION_DOT = .16E-6
MEAN_MOTION_DDOT = 0

CCSDS_OMM_VERS = 2.0
CREATION_DATE  = 
ORIGINATOR     = 

OBJECT_NAME    = SL-14 R/B
OBJECT_ID      = 1988-001B
CENTER_NAME    = EARTH
REF_FRAME      = TEME
TIME_SYSTEM    = UTC
MEAN_ELEMENT_THEORY = SGP/SGP4

EPOCH          = 2026-01-05T14:59:39.498144
MEAN_MOTION    = 14.85453653
ECCENTRICITY   = .00196488
INCLINATION    = 82.5125
RA_OF_ASC_NODE = 254.6834
ARG_OF_PERICENTER = 87.0509
MEAN_ANOMALY   = 273.2955

EPHEMERIS_TYPE = 0
CLASSIFICATION_TYPE = U
NORAD_CAT_ID   = 18749
ELEMENT_SET_NO = 999
REV_AT_EPOCH   = 3266
BSTAR          = .80091456E-4
MEAN_MOTION_DOT = .717E-5
MEAN_MOTION_DDOT = 0

