SL-14 R/B               
1 16792U 86046B   26005.55968060  .00000844  00000+0  94376-4 0  9999
2 16792  82.4833 139.8195 0024505  77.4886 282.9069 14.85518158117031
SL-14 R/B               
1 16882U 86055B   26005.48399442  .00000769  00000+0  85891-4 0  9991
2 16882  82.5198 186.0605 0018944 177.0448 213.0398 14.85560769109987
AJISAI (EGS)            
1 16908U 86061A   26005.59174014 -.00000069  00000+0  20008-3 0  9997
2 16908  50.0101 287.3751 0011308 125.7911 292.3977 12.44514668460140
COSMOS 1812             
1 17295U 87003A   26005.44475575  .00158190  00000+0  78509-3 0  9991
2 17295  82.4861 266.2552 0004480  59.2251 300.9457 15.81520934134399
SL-14 R/B               
1 17567U 87024B   26005.48134031  .00000851  00000+0  94150-4 0  9990
2 17567  82.5290 152.1518 0019614 108.7671 251.5676 14.86057191 78748
COSMOS 1833             
1 17589U 87027A   26005.64507614  .00000362  00000+0  21913-3 0  9999
2 17589  70.9185  98.5271 0023672 298.5192  61.3546 14.13036888  1413
SL-16 R/B               
1 17590U 87027B   26005.51902231  .00000191  00000+0  11866-3 0  9997
2 17590  71.0031  49.6110 0006862 234.7736 125.2746 14.17156874  6390
SL-14 R/B               
1 17912U 87038B   26005.44375735  .00000796  00000+0  89576-4 0  9997
2 17912  82.5015 356.3716 0019771  18.2933 341.8990 14.85290775 69844
COSMOS 1844             
1 17973U 87041A   26005.60533267  .00000073  00000+0  62693-4 0  9991
2 17973  70.8989 167.2343 0028698 119.4262 240.9729 14.14539089994665
SL-14 R/B               
1 18153U 87055B   26005.56622585  .00000683  00000+0  76046-4 0  9998
2 18153  82.4981  48.5307 0019702 219.0583 140.9212 14.85550420 60566
COSMOS 1867             
1 18187U 87060A   26005.63548540  .00000016  00000+0  43611-4 0  9999
2 18187  65.0110 123.2855 0013819 273.5564  86.3940 14.31491332 10912
SL-14 R/B               
1 18749U 88001B   26005.62476271  .00000717  00000+0  80091-4 0  9990
2 18749  82.5125 254.6834 0019648  87.0509 273.2955 14.85453653 32667
